      2.10          N: GNSS NAV DATA                        RINEX VERSION / TYPE
fic2rin                                 03/06/2020 00:19:35 PGM / RUN BY / DATE
                                                            END OF HEADER
 3 20  3  5 12  0  0.0-1.101512461901e-04-9.549694368616e-12 0.000000000000e+00
    2.100000000000e+01-8.512500000000e+01 4.378396663510e-09-2.574408213636e-01
   -4.364177584648e-06 2.659909194335e-03 1.098588109016e-05 5.153606815338e+03
    3.888000000000e+05-5.587935447693e-09-6.659195665200e-01 5.960464477539e-08
    9.651724488838e-01 1.737187500000e+02 7.140753859803e-01-7.879256774100e-09
    2.464388365953e-10 1.000000000000e+00 2.095000000000e+03 0.000000000000e+00
    2.400000000000e+00 0.000000000000e+00 1.862645149231e-09 2.100000000000e+01
    3.816000000000e+05 4.000000000000e+00
 2 20  3  5 12  0  0.0-4.164357669652e-04-6.821210263297e-12 0.000000000000e+00
    9.300000000000e+01-7.537500000000e+01 4.795556897051e-09 1.107901120872e+00
   -4.181638360023e-06 1.981621503364e-02 3.242865204811e-06 5.153647840500e+03
    3.888000000000e+05-2.793967723846e-07-1.781913321991e+00-2.756714820862e-07
    9.578795199154e-01 3.176875000000e+02-1.650765775146e+00-8.665718104800e-09
   -5.928818387655e-11 1.000000000000e+00 2.095000000000e+03 0.000000000000e+00
    3.400000000000e+00 0.000000000000e+00-1.769512891769e-08 9.300000000000e+01
    3.816000000000e+05 4.000000000000e+00
 7 20  3  5 12  0  0.0-2.288939431310e-04-8.526512829121e-12 0.000000000000e+00
    3.900000000000e+01 7.531250000000e+00 5.059853620356e-09 1.030409450518e-01
    4.582107067108e-07 1.340349728707e-02 6.621703505516e-06 5.153682201385e+03
    3.888000000000e+05 1.862645149231e-08 1.439585741347e+00 1.415610313416e-07
    9.532988703244e-01 2.452812500000e+02-2.414512740730e+00-8.437851470382e-09
   -5.293077620786e-10 1.000000000000e+00 2.095000000000e+03 0.000000000000e+00
    2.400000000000e+00 0.000000000000e+00-1.117587089539e-08 3.900000000000e+01
    3.816000000000e+05 4.000000000000e+00
 5 20  3  5 12  0  0.0-8.615665137768e-06-5.684341886081e-13 0.000000000000e+00
    8.300000000000e+01-8.731250000000e+01 4.632692970257e-09-2.534758649843e+00
   -4.742294549942e-06 5.783615517430e-03 9.877607226372e-06 5.153615228653e+03
    3.888000000000e+05 1.061707735062e-07-6.966592965075e-01-8.754432201385e-08
    9.520449110748e-01 1.842812500000e+02 7.901906727847e-01-7.914258232051e-09
    2.278666344171e-10 1.000000000000e+00 2.095000000000e+03 0.000000000000e+00
    2.400000000000e+00 0.000000000000e+00-1.117587089539e-08 8.300000000000e+01
    3.816000000000e+05 4.000000000000e+00
17 20  3  5 12  0  0.0 2.269702963531e-04 6.480149750132e-12 0.000000000000e+00
    6.000000000000e+00 8.212500000000e+01 3.877304362433e-09 2.909181861707e+00
    4.261732101440e-06 1.333751319908e-02 3.647059202194e-06 5.153665267944e+03
    3.888000000000e+05 9.872019290924e-08-2.704933149860e+00-8.381903171539e-08
    9.843441658627e-01 3.186250000000e+02-1.647773478619e+00-7.815325539679e-09
    2.450102056585e-10 1.000000000000e+00 2.095000000000e+03 0.000000000000e+00
    2.400000000000e+00 0.000000000000e+00-1.117587089539e-08 6.000000000000e+00
    3.816000000000e+05 4.000000000000e+00
22 20  3  5 12  0  0.0-7.853242568672e-04-2.273736754432e-13 0.000000000000e+00
    1.500000000000e+01-9.175000000000e+01 5.102355390725e-09 2.077251792526e+00
   -4.809349775314e-06 7.141389884055e-03 1.025572419167e-05 5.153563131332e+03
    3.888000000000e+05 9.499490261078e-08-7.493156210547e-01 1.117587089539e-08
    9.299989345771e-01 1.671875000000e+02-1.212088249072e+00-8.136410342721e-09
    1.660783464012e-10 1.000000000000e+00 2.095000000000e+03 0.000000000000e+00
    2.400000000000e+00 0.000000000000e+00-1.816079020500e-08 1.500000000000e+01
    3.816000000000e+05 4.000000000000e+00
31 20  3  5 12  0  0.0-2.743443474174e-05-2.501110429876e-12 0.000000000000e+00
    9.000000000000e+00 4.343750000000e+00 4.845558979838e-09-3.141772302856e-01
    1.676380634308e-07 9.633140638471e-03 6.884336471558e-06 5.153785190582e+03
    3.888000000000e+05 1.583248376846e-07 1.454817173329e+00 6.332993507385e-08
    9.577509703780e-01 2.451250000000e+02 1.253737632119e-01-8.240343243372e-09
   -4.500187450871e-10 1.000000000000e+00 2.095000000000e+03 0.000000000000e+00
    2.400000000000e+00 0.000000000000e+00-1.350417733192e-08 9.000000000000e+00
    3.816000000000e+05 4.000000000000e+00
26 20  3  5 12  0  0.0 1.614242792130e-04 7.617018127348e-12 0.000000000000e+00
    1.300000000000e+01 5.956250000000e+01 4.536260382024e-09-1.492281601256e+00
    3.064051270485e-06 4.693530965596e-03 9.212642908096e-06 5.153579648972e+03
    3.888000000000e+05-2.980232238770e-08 2.443156426563e+00-1.043081283569e-07
    9.477900913759e-01 1.972812500000e+02 2.030382349117e-01-7.969617680851e-09
   -2.871548182937e-10 1.000000000000e+00 2.095000000000e+03 0.000000000000e+00
    2.400000000000e+00 0.000000000000e+00 7.450580596924e-09 1.300000000000e+01
    3.816000000000e+05 4.000000000000e+00
16 20  3  5 12  0  0.0-1.316014677286e-04-4.206412995700e-12 0.000000000000e+00
    5.800000000000e+01 7.140625000000e+01 3.789443559820e-09-2.382389312603e+00
    3.617256879807e-06 1.148440246470e-02 9.484589099884e-06 5.153727531433e+03
    3.888000000000e+05 4.470348358154e-08 2.563641920696e+00-1.080334186554e-07
    9.796700562873e-01 2.081562500000e+02 6.089374210078e-01-7.538885453411e-09
   -1.335769925893e-10 1.000000000000e+00 2.095000000000e+03 0.000000000000e+00
    2.400000000000e+00 0.000000000000e+00-1.071020960808e-08 5.800000000000e+01
    3.816000000000e+05 4.000000000000e+00
 9 20  3  5 12  0  0.0-1.698671840131e-04-8.299139153678e-12 0.000000000000e+00
    4.400000000000e+01 1.771875000000e+01 5.041995733646e-09-2.895251878222e+00
    1.030042767525e-06 1.691457815468e-03 8.102506399155e-06 5.153772294998e+03
    3.888000000000e+05 4.842877388000e-08 3.649672707403e-01 4.842877388000e-08
    9.529975457730e-01 2.213750000000e+02 1.786539678994e+00-8.115695194138e-09
    3.935878230841e-10 1.000000000000e+00 2.095000000000e+03 0.000000000000e+00
    2.400000000000e+00 0.000000000000e+00 1.396983861923e-09 4.400000000000e+01
    3.816000000000e+05 4.000000000000e+00
27 20  3  5 12  0  0.0-2.297363243997e-04-1.080024958355e-11 0.000000000000e+00
    7.500000000000e+01 7.200000000000e+01 4.026596295327e-09 3.002630640167e+00
    3.769993782043e-06 7.977850153111e-03 4.317611455917e-06 5.153662601471e+03
    3.888000000000e+05 4.284083843231e-08-2.762781480390e+00-1.192092895508e-07
    9.785772213720e-01 3.073125000000e+02 5.128418638650e-01-7.969617680851e-09
    2.814402945465e-10 1.000000000000e+00 2.095000000000e+03 0.000000000000e+00
    2.400000000000e+00 0.000000000000e+00 1.396983861923e-09 7.500000000000e+01
    3.816000000000e+05 4.000000000000e+00
21 20  3  5 12  0  0.0-3.203935921192e-05 5.229594535194e-12 0.000000000000e+00
    4.800000000000e+01-5.975000000000e+01 4.925205154564e-09-1.007772057203e+00
   -2.916902303696e-06 2.486942347605e-02 4.250556230545e-06 5.153550544739e+03
    3.888000000000e+05-4.395842552185e-07-1.779224522449e+00 1.192092895508e-07
    9.517916492340e-01 3.006875000000e+02-1.355122068216e+00-8.823581823314e-09
    1.539349834385e-10 1.000000000000e+00 2.095000000000e+03 0.000000000000e+00
    2.400000000000e+00 0.000000000000e+00-1.024454832077e-08 4.800000000000e+01
    3.816000000000e+05 4.000000000000e+00
15 20  3  5 12  0  0.0-2.470994368196e-04 2.614797267597e-12 0.000000000000e+00
    4.000000000000e+01 1.503125000000e+01 5.504872157164e-09 2.133848997479e+00
    6.444752216339e-07 1.216764445417e-02 8.463859558105e-06 5.153641637802e+03
    3.888000000000e+05-2.160668373108e-07 2.776611843543e-01-2.700835466385e-07
    9.285584854566e-01 2.003437500000e+02 8.662802297859e-01-8.271773123981e-09
    4.314465429089e-10 1.000000000000e+00 2.095000000000e+03 0.000000000000e+00
    2.400000000000e+00 0.000000000000e+00-1.117587089539e-08 4.000000000000e+01
    3.816000000000e+05 4.000000000000e+00
14 20  3  5 12  0  0.0-2.831080928445e-05 2.501110429876e-12 0.000000000000e+00
    4.100000000000e+01 1.706250000000e+01 4.774127432999e-09 2.735647782025e+00
    8.363276720047e-07 1.103786344174e-02 7.467344403267e-06 5.153614412308e+03
    3.888000000000e+05 5.029141902924e-08 4.601467149348e-01-1.769512891769e-07
    9.607501440827e-01 2.322187500000e+02-1.927535419187e+00-7.874256565821e-09
    2.239378993409e-10 1.000000000000e+00 2.095000000000e+03 0.000000000000e+00
    2.400000000000e+00 0.000000000000e+00-9.778887033463e-09 4.100000000000e+01
    3.816000000000e+05 4.000000000000e+00
20 20  3  5 12  0  0.0 5.278806202114e-04 0.000000000000e+00 0.000000000000e+00
    3.200000000000e+01-8.600000000000e+01 5.066639617306e-09 3.149934303179e-01
   -4.505738615990e-06 5.031882436015e-03 9.307637810707e-06 5.153634914398e+03
    3.888000000000e+05 3.352761268616e-08-7.970591770340e-01-7.264316082001e-08
    9.332635445269e-01 1.860937500000e+02 2.610869454267e+00-8.317132156224e-09
    1.539349834385e-10 1.000000000000e+00 2.095000000000e+03 0.000000000000e+00
    2.400000000000e+00 0.000000000000e+00-8.847564458847e-09 3.200000000000e+01
    3.816000000000e+05 4.000000000000e+00
10 20  3  5 12  0  0.0-2.670804969966e-04-1.273292582482e-11 0.000000000000e+00
    9.500000000000e+01-6.831250000000e+01 4.325180161115e-09-1.246315180773e+00
   -3.604218363762e-06 5.443172529340e-03 1.012906432152e-05 5.153667602539e+03
    3.888000000000e+05 9.499490261078e-08-6.690027907201e-01-6.332993507385e-08
    9.651370506550e-01 1.839062500000e+02-2.657591001047e+00-7.821754378894e-09
    2.421529437849e-10 1.000000000000e+00 2.095000000000e+03 0.000000000000e+00
    2.400000000000e+00 0.000000000000e+00 1.862645149231e-09 9.500000000000e+01
    3.816000000000e+05 4.000000000000e+00
